[{"OBJECT_NAME":"STARLINK-32611","OBJECT_ID":"2024-210T","EPOCH":"2026-03-09T07:41:32.038944","MEAN_MOTION":15.27599373,"ECCENTRICITY":0.00029733,"INCLINATION":43.0003,"RA_OF_ASC_NODE":181.8939,"ARG_OF_PERICENTER":281.0334,"MEAN_ANOMALY":79.0183,"EPHEMERIS_TYPE":0,"CLASSIFICATION_TYPE":"U","NORAD_CAT_ID":61976,"ELEMENT_SET_NO":999,"REV_AT_EPOCH":7482,"BSTAR":0.0012881067,"MEAN_MOTION_DOT":0.00035378,"MEAN_MOTION_DDOT":0},{"OBJECT_NAME":"CZ-6A DEB","OBJECT_ID":"2022-151ADD","EPOCH":"2026-03-09T18:20:47.462208","MEAN_MOTION":15.20298953,"ECCENTRICITY":0.00285544,"INCLINATION":98.6309,"RA_OF_ASC_NODE":152.6578,"ARG_OF_PERICENTER":173.2603,"MEAN_ANOMALY":186.9019,"EPHEMERIS_TYPE":0,"CLASSIFICATION_TYPE":"U","NORAD_CAT_ID":56285,"ELEMENT_SET_NO":999,"REV_AT_EPOCH":17182,"BSTAR":0.0066325049,"MEAN_MOTION_DOT":0.00148374,"MEAN_MOTION_DDOT":0}]
